$$SOE
2460728.500000000, A.D. 2025-Feb-22 00:00:00.0000, -1.004078908917208E+08, -3.641827464814039E+08, 4.944084374569899E+07,
2460735.500000000, A.D. 2025-Mar-01 00:00:00.0000, -9.099106080799773E+07, -3.642389808172000E+08, 4.456130180516073E+07,
2460742.500000000, A.D. 2025-Mar-08 00:00:00.0000, -8.149251494150284E+07, -3.639680580775437E+08, 3.964174410259934E+07,
2460749.500000000, A.D. 2025-Mar-15 00:00:00.0000, -7.191902114449969E+07, -3.633623454396443E+08, 3.468573325550729E+07,
2460756.500000000, A.D. 2025-Mar-22 00:00:00.0000, -6.227774631171029E+07, -3.624141113922422E+08, 2.969703895573911E+07,
2460763.500000000, A.D. 2025-Mar-29 00:00:00.0000, -5.257628490283068E+07, -3.611155366450183E+08, 2.467965217113332E+07,
2460770.500000000, A.D. 2025-Apr-05 00:00:00.0000, -4.282268745486245E+07, -3.594587263044939E+08, 1.963780012360959E+07,
2460777.500000000, A.D. 2025-Apr-12 00:00:00.0000, -3.302549105711475E+07, -3.574357235218436E+08, 1.457596225106889E+07,
2460784.500000000, A.D. 2025-Apr-19 00:00:00.0000, -2.319375200831908E+07, -3.550385258410284E+08, 9.498887112420991E+06,
2460791.500000000, A.D. 2025-Apr-26 00:00:00.0000, -1.333708039734701E+07, -3.522591048392659E+08, 4.411610197988316E+06,
2460798.500000000, A.D. 2025-May-03 00:00:00.0000, -3.465676482160999E+06, -3.490894294750001E+08, -6.805273733816296E+05,
2460805.500000000, A.D. 2025-May-10 00:00:00.0000, 6.409631205147462E+06, -3.455214936183009E+08, -5.771859299450979E+06,
2460812.500000000, A.D. 2025-May-17 00:00:00.0000, 1.627734614642097E+07, -3.415473483407822E+08, -1.085637373715012E+07,
2460819.500000000, A.D. 2025-May-24 00:00:00.0000, 2.612526282314233E+07, -3.371591396074475E+08, -1.592769223780036E+07,
2460826.500000000, A.D. 2025-May-31 00:00:00.0000, 3.594042501207829E+07, -3.323491516983263E+08, -2.097904809479968E+07,
2460833.500000000, A.D. 2025-Jun-07 00:00:00.0000, 4.570908326733817E+07, -3.271098558497443E+08, -2.600326411439931E+07,
2460840.500000000, A.D. 2025-Jun-14 00:00:00.0000, 5.541664959960957E+07, -3.214339655388321E+08, -3.099272984133315E+07,
2460847.500000000, A.D. 2025-Jun-21 00:00:00.0000, 6.504765105476528E+07, -3.153145025007553E+08, -3.593937887206294E+07,
2460854.500000000, A.D. 2025-Jun-28 00:00:00.0000, 7.458568593058774E+07, -3.087448725837587E+08, -4.083466672351055E+07,
2460861.500000000, A.D. 2025-Jul-05 00:00:00.0000, 8.401338187277463E+07, -3.017189501852666E+08, -4.566954934902748E+07,
2460868.500000000, A.D. 2025-Jul-12 00:00:00.0000, 9.331235559603663E+07, -2.942311729793338E+08, -5.043446275766002E+07,
2460875.500000000, A.D. 2025-Jul-19 00:00:00.0000, 1.024631755700443E+08, -2.862766483991413E+08, -5.511930440528536E+07,
2460882.500000000, A.D. 2025-Jul-26 00:00:00.0000, 1.114453292760469E+08, -2.778512727771679E+08, -5.971341710564332E+07,
2460889.500000000, A.D. 2025-Aug-02 00:00:00.0000, 1.202371967696146E+08, -2.689518638865581E+08, -6.420557632698676E+07,
2460896.500000000, A.D. 2025-Aug-09 00:00:00.0000, 1.288160325418802E+08, -2.595763075276140E+08, -6.858398189341040E+07,
2460903.500000000, A.D. 2025-Aug-16 00:00:00.0000, 1.371579580461992E+08, -2.497237186454333E+08, -7.283625528686358E+07,
2460910.500000000, A.D. 2025-Aug-23 00:00:00.0000, 1.452379678072829E+08, -2.393946170940237E+08, -7.694944393587779E+07,
2460917.500000000, A.D. 2025-Aug-30 00:00:00.0000, 1.530299523993675E+08, -2.285911170673917E+08, -8.091003399921870E+07,
2460924.500000000, A.D. 2025-Sep-06 00:00:00.0000, 1.605067401520821E+08, -2.173171284057058E+08, -8.470397313261598E+07,
2460931.500000000, A.D. 2025-Sep-13 00:00:00.0000, 1.676401594762781E+08, -2.055785707995129E+08, -8.831670512859806E+07,
2460938.500000000, A.D. 2025-Sep-20 00:00:00.0000, 1.744011288702371E+08, -1.933836002621976E+08, -9.173321880985138E+07,
2460945.500000000, A.D. 2025-Sep-27 00:00:00.0000, 1.807597795708366E+08, -1.807428415244501E+08, -9.493811301786333E+07,
2460952.500000000, A.D. 2025-Oct-04 00:00:00.0000, 1.866856126977087E+08, -1.676696214642934E+08, -9.791567943853945E+07,
2460959.500000000, A.D. 2025-Oct-11 00:00:00.0000, 1.921476941284812E+08, -1.541801989167811E+08, -1.006500051387052E+08,
2460966.500000000, A.D. 2025-Oct-18 00:00:00.0000, 1.971148904799710E+08, -1.402939841893684E+08, -1.031250964136430E+08,
2460973.500000000, A.D. 2025-Oct-25 00:00:00.0000, 2.015561485783992E+08, -1.260337399387402E+08, -1.053250250604994E+08,
2460980.500000000, A.D. 2025-Nov-01 00:00:00.0000, 2.054408194735299E+08, -1.114257537295868E+08, -1.072340975381087E+08,
2460987.500000000, A.D. 2025-Nov-08 00:00:00.0000, 2.087390263995869E+08, -9.649997148519877E+07, -1.088370466166816E+08,
2460994.500000000, A.D. 2025-Nov-15 00:00:00.0000, 2.114220741217853E+08, -8.129008022578844E+07, -1.101192440488025E+08,
2461001.500000000, A.D. 2025-Nov-22 00:00:00.0000, 2.134628948952169E+08, -6.583352784943885E+07, -1.110669315069267E+08,
2461008.500000000, A.D. 2025-Nov-29 00:00:00.0000, 2.148365229420867E+08, -5.017146710559078E+07, -1.116674654805972E+08,
2461015.500000000, A.D. 2025-Dec-06 00:00:00.0000, 2.155205842839265E+08, -3.434861334402426E+07, -1.119095702290169E+08,
2461022.500000000, A.D. 2025-Dec-13 00:00:00.0000, 2.154957885481912E+08, -1.841301096597860E+07, -1.117835918907203E+08,
2461029.500000000, A.D. 2025-Dec-20 00:00:00.0000, 2.147464098137228E+08, -2.415702222482510E+06, -1.112817454324005E+08,
2461036.500000000, A.D. 2025-Dec-27 00:00:00.0000, 2.132607369995763E+08, 1.358970545894049E+07, -1.103983445703930E+08,
2461043.500000000, A.D. 2026-Jan-03 00:00:00.0000, 2.110314728359380E+08, 2.954756929880440E+07, -1.091300045036909E+08,
2461050.500000000, A.D. 2026-Jan-10 00:00:00.0000, 2.080560621332823E+08, 4.540082830093971E+07, -1.074758075416308E+08,
2461057.500000000, A.D. 2026-Jan-17 00:00:00.0000, 2.043369316845579E+08, 6.109169287788661E+07, -1.054374224867629E+08,
2461064.500000000, A.D. 2026-Jan-24 00:00:00.0000, 1.998816269282132E+08, 7.656238708180988E+07, -1.030191701737360E+08,
2461071.500000000, A.D. 2026-Jan-31 00:00:00.0000, 1.947028347464654E+08, 9.175591926883580E+07, -1.002280298214832E+08,
2461078.500000000, A.D. 2026-Feb-07 00:00:00.0000, 1.888182871966424E+08, 1.066168541266284E+08, -9.707358367527887E+07,
2461085.500000000, A.D. 2026-Feb-14 00:00:00.0000, 1.822505472140639E+08, 1.210920579645716E+08, -9.356790057347912E+07,
2461092.500000000, A.D. 2026-Feb-21 00:00:00.0000, 1.750266836398145E+08, 1.351313906355604E+08, -8.972536223033813E+07,
2461099.500000000, A.D. 2026-Feb-28 00:00:00.0000, 1.671778471790821E+08, 1.486883208403657E+08, -8.556243878020908E+07,
2461106.500000000, A.D. 2026-Mar-07 00:00:00.0000, 1.587387627105332E+08, 1.617204429776305E+08, -8.109742276035601E+07,
2461113.500000000, A.D. 2026-Mar-14 00:00:00.0000, 1.497471616789540E+08, 1.741898790156043E+08, -7.635013295561546E+07,
2461120.500000000, A.D. 2026-Mar-21 00:00:00.0000, 1.402431791386257E+08, 1.860635604172263E+08, -7.134159988397831E+07,
2461127.500000000, A.D. 2026-Mar-28 00:00:00.0000, 1.302687364027088E+08, 1.973133897050556E+08, -6.609374454273229E+07,
2461134.500000000, A.D. 2026-Apr-04 00:00:00.0000, 1.198669303448819E+08, 2.079162851826250E+08, -6.062906159480973E+07,
2461141.500000000, A.D. 2026-Apr-11 00:00:00.0000, 1.090814487061161E+08, 2.178541179284894E+08, -5.497031684251467E+07,
2461148.500000000, A.D. 2026-Apr-18 00:00:00.0000, 9.795602720454931E+07, 2.271135543415926E+08, -4.914026702179291E+07,
2461155.500000000, A.D. 2026-Apr-25 00:00:00.0000, 8.653396026311912E+07, 2.356858200362487E+08, -4.316140795136312E+07,
2461162.500000000, A.D. 2026-May-02 00:00:00.0000, 7.485767322512349E+07, 2.435664020210072E+08, -3.705575502379823E+07,
2461169.500000000, A.D. 2026-May-09 00:00:00.0000, 6.296836029456061E+07, 2.507547060523729E+08, -3.084465807055618E+07,
2461176.500000000, A.D. 2026-May-16 00:00:00.0000, 5.090568937215856E+07, 2.572536853110776E+08, -2.454865090286119E+07,
2461183.500000000, A.D. 2026-May-23 00:00:00.0000, 3.870757188675440E+07, 2.630694558227839E+08, -1.818733431703627E+07,
2461190.500000000, A.D. 2026-May-30 00:00:00.0000, 2.640999150406717E+07, 2.682109113015712E+08, -1.177929014960036E+07,
2461197.500000000, A.D. 2026-Jun-06 00:00:00.0000, 1.404688588026337E+07, 2.726893442502064E+08, -5.342023684760496E+06,
2461204.500000000, A.D. 2026-Jun-13 00:00:00.0000, 1.650078720161223E+06, 2.765180814323283E+08, 1.108068627178580E+06,
2461211.500000000, A.D. 2026-Jun-20 00:00:00.0000, -1.075074511923393E+07, 2.797121424596648E+08, 7.555709968239486E+06,
2461218.500000000, A.D. 2026-Jun-27 00:00:00.0000, -2.312802993879472E+07, 2.822879250484512E+08, 1.398673613056697E+07,
2461225.500000000, A.D. 2026-Jul-04 00:00:00.0000, -3.545631139891929E+07, 2.842629184462479E+08, 2.038807398091316E+07,
2461232.500000000, A.D. 2026-Jul-11 00:00:00.0000, -4.771215634300639E+07, 2.856554458450207E+08, 2.674770848295249E+07,
2461239.500000000, A.D. 2026-Jul-18 00:00:00.0000, -5.987408551989895E+07, 2.864844357010211E+08, 3.305464105136529E+07,
2461246.500000000, A.D. 2026-Jul-25 00:00:00.0000, -7.192248387975483E+07, 2.867692210637466E+08, 3.929884166314614E+07,
2461253.500000000, A.D. 2026-Aug-01 00:00:00.0000, -8.383950241368280E+07, 2.865293653974846E+08, 4.547119678878494E+07,
2461260.500000000, A.D. 2026-Aug-08 00:00:00.0000, -9.560895468493815E+07, 2.857845130149609E+08, 5.156345484911685E+07,
2461267.500000000, A.D. 2026-Aug-15 00:00:00.0000, -1.072162103916748E+08, 2.845542625093309E+08, 5.756817060810588E+07,
2461274.500000000, A.D. 2026-Aug-22 00:00:00.0000, -1.186480889309173E+08, 2.828580622486204E+08, 6.347864979901811E+07,
2461281.500000000, A.D. 2026-Aug-29 00:00:00.0000, -1.298927569732911E+08, 2.807151244017090E+08, 6.928889496044493E+07,
2461288.500000000, A.D. 2026-Sep-05 00:00:00.0000, -1.409396292134586E+08, 2.781443525154644E+08, 7.499355271139002E+07,
2461295.500000000, A.D. 2026-Sep-12 00:00:00.0000, -1.517792708071641E+08, 2.751642831357970E+08, 8.058786292394997E+07,
$$EOE